{"type": "FeatureCollection", "features": [ {"type": "Feature", "properties": {"norad_id": 65304, "name": "DRAGON CRS-33", "group": "stations", "lat": -22.613898742367134, "lon": -83.24561868493703, "alt_km": 420.4545348538668, "timestamp": "2025-12-25T20:42:37.443522+00:00", "meta": {"OBJECT_NAME": "DRAGON CRS-33", "OBJECT_ID": "2025-186A", "EPOCH": "2025-12-25T05:52:58.411200", "MEAN_MOTION": 15.49803499, "ECCENTRICITY": 0.00032029, "INCLINATION": 51.6316, "RA_OF_ASC_NODE": 80.5467, "ARG_OF_PERICENTER": 298.8467, "MEAN_ANOMALY": 61.22, "EPHEMERIS_TYPE": 0, "CLASSIFICATION_TYPE": "U", "NORAD_CAT_ID": 65304, "ELEMENT_SET_NO": 999, "REV_AT_EPOCH": 11, "BSTAR": 0.00025322562, "MEAN_MOTION_DOT": 0.00013923, "MEAN_MOTION_DDOT": 0}, "tle": {"line1": "1 65304U 25186A   25359.24512050  .00013923  00000+0  25323-3 0  9998", "line2": "2 65304  51.6316  80.5467 0003202 298.8467  61.2200 15.49803499   118"}}, "geometry": {"type": "Point", "coordinates": [-83.24561868493703, -22.613898742367134]}}, {"type": "Feature", "properties": {"norad_id": 65586, "name": "PROGRESS-MS 32", "group": "stations", "lat": -22.61389926788207, "lon": -83.24561816798817, "alt_km": 420.45453486916995, "timestamp": "2025-12-25T20:42:37.443533+00:00", "meta": {"OBJECT_NAME": "PROGRESS-MS 32", "OBJECT_ID": "2025-204A", "EPOCH": "2025-12-25T05:52:58.411200", "MEAN_MOTION": 15.49803499, "ECCENTRICITY": 0.00032029, "INCLINATION": 51.6316, "RA_OF_ASC_NODE": 80.5467, "ARG_OF_PERICENTER": 298.8467, "MEAN_ANOMALY": 61.22, "EPHEMERIS_TYPE": 0, "CLASSIFICATION_TYPE": "U", "NORAD_CAT_ID": 65586, "ELEMENT_SET_NO": 999, "REV_AT_EPOCH": 27, "BSTAR": 0.00025322562, "MEAN_MOTION_DOT": 0.00013923, "MEAN_MOTION_DDOT": 0}, "tle": {"line1": "1 65586U 25204A   25359.24512050  .00013923  00000+0  25323-3 0  9991", "line2": "2 65586  51.6316  80.5467 0003202 298.8467  61.2200 15.49803499   277"}}, "geometry": {"type": "Point", "coordinates": [-83.24561816798817, -22.61389926788207]}}, {"type": "Feature", "properties": {"norad_id": 65616, "name": "CYGNUS NG-23", "group": "stations", "lat": -22.613899745623424, "lon": -83.2456176980342, "alt_km": 420.4545348830852, "timestamp": "2025-12-25T20:42:37.443543+00:00", "meta": {"OBJECT_NAME": "CYGNUS NG-23", "OBJECT_ID": "2025-208A", "EPOCH": "2025-12-25T05:52:58.411200", "MEAN_MOTION": 15.49803499, "ECCENTRICITY": 0.00032029, "INCLINATION": 51.6316, "RA_OF_ASC_NODE": 80.5467, "ARG_OF_PERICENTER": 298.8467, "MEAN_ANOMALY": 61.22, "EPHEMERIS_TYPE": 0, "CLASSIFICATION_TYPE": "U", "NORAD_CAT_ID": 65616, "ELEMENT_SET_NO": 999, "REV_AT_EPOCH": 22, "BSTAR": 0.00025322562, "MEAN_MOTION_DOT": 0.00013923, "MEAN_MOTION_DDOT": 0}, "tle": {"line1": "1 65616U 25208A   25359.24512050  .00013923  00000+0  25323-3 0  9999", "line2": "2 65616  51.6316  80.5467 0003202 298.8467  61.2200 15.49803499   226"}}, "geometry": {"type": "Point", "coordinates": [-83.2456176980342, -22.613899745623424]}}, {"type": "Feature", "properties": {"norad_id": 65729, "name": "DRAGONFLY", "group": "stations", "lat": -51.316257110738164, "lon": -29.88175097162227, "alt_km": 344.6711927078077, "timestamp": "2025-12-25T20:42:37.443553+00:00", "meta": {"OBJECT_NAME": "DRAGONFLY", "OBJECT_ID": "1998-067XH", "EPOCH": "2025-12-24T22:17:24.636768", "MEAN_MOTION": 15.7614965, "ECCENTRICITY": 0.0008056, "INCLINATION": 51.6251, "RA_OF_ASC_NODE": 73.1569, "ARG_OF_PERICENTER": 349.7528, "MEAN_ANOMALY": 10.3306, "EPHEMERIS_TYPE": 0, "CLASSIFICATION_TYPE": "U", "NORAD_CAT_ID": 65729, "ELEMENT_SET_NO": 999, "REV_AT_EPOCH": 1508, "BSTAR": 0.0012603851, "MEAN_MOTION_DOT": 0.00206057, "MEAN_MOTION_DDOT": 0}, "tle": {"line1": "1 65729U 98067XH  25358.92875737  .00206057  00000+0  12604-2 0  9994", "line2": "2 65729  51.6251  73.1569 0008056 349.7528  10.3306 15.76149650 15080"}}, "geometry": {"type": "Point", "coordinates": [-29.88175097162227, -51.316257110738164]}}, {"type": "Feature", "properties": {"norad_id": 65731, "name": "1998-067XK", "group": "stations", "lat": -36.5478396051837, "lon": 34.558394401789165, "alt_km": 364.63439277514954, "timestamp": "2025-12-25T20:42:37.443563+00:00", "meta": {"OBJECT_NAME": "1998-067XK", "OBJECT_ID": "1998-067XK", "EPOCH": "2025-12-24T11:16:20.028000", "MEAN_MOTION": 15.67978094, "ECCENTRICITY": 0.00049802, "INCLINATION": 51.6288, "RA_OF_ASC_NODE": 77.6233, "ARG_OF_PERICENTER": 319.0572, "MEAN_ANOMALY": 41.005, "EPHEMERIS_TYPE": 0, "CLASSIFICATION_TYPE": "U", "NORAD_CAT_ID": 65731, "ELEMENT_SET_NO": 999, "REV_AT_EPOCH": 1498, "BSTAR": 0.00093626937, "MEAN_MOTION_DOT": 0.00106638, "MEAN_MOTION_DDOT": 0}, "tle": {"line1": "1 65731U 98067XK  25358.46967625  .00106638  00000+0  93627-3 0  9993", "line2": "2 65731  51.6288  77.6233 0004980 319.0572  41.0050 15.67978094 14988"}}, "geometry": {"type": "Point", "coordinates": [34.558394401789165, -36.5478396051837]}}, {"type": "Feature", "properties": {"norad_id": 65732, "name": "RSP-03", "group": "stations", "lat": 50.33930997232682, "lon": 142.3998176990781, "alt_km": 347.2406743310148, "timestamp": "2025-12-25T20:42:37.443574+00:00", "meta": {"OBJECT_NAME": "RSP-03", "OBJECT_ID": "1998-067XL", "EPOCH": "2025-12-25T06:38:37.432032", "MEAN_MOTION": 15.71873826, "ECCENTRICITY": 0.00060461, "INCLINATION": 51.626, "RA_OF_ASC_NODE": 72.4976, "ARG_OF_PERICENTER": 331.0296, "MEAN_ANOMALY": 29.0366, "EPHEMERIS_TYPE": 0, "CLASSIFICATION_TYPE": "U", "NORAD_CAT_ID": 65732, "ELEMENT_SET_NO": 999, "REV_AT_EPOCH": 1513, "BSTAR": 0.0010910555, "MEAN_MOTION_DOT": 0.00147046, "MEAN_MOTION_DDOT": 0}, "tle": {"line1": "1 65732U 98067XL  25359.27682213  .00147046  00000+0  10911-2 0  9993", "line2": "2 65732  51.6260  72.4976 0006046 331.0296  29.0366 15.71873826 15134"}}, "geometry": {"type": "Point", "coordinates": [142.3998176990781, 50.33930997232682]}}, {"type": "Feature", "properties": {"norad_id": 65733, "name": "GHS-01", "group": "stations", "lat": -8.720458806505633, "lon": 60.44706455815195, "alt_km": 323.2881563941073, "timestamp": "2025-12-25T20:42:37.443584+00:00", "meta": {"OBJECT_NAME": "GHS-01", "OBJECT_ID": "1998-067XM", "EPOCH": "2025-12-25T05:35:06.591552", "MEAN_MOTION": 15.80593355, "ECCENTRICITY": 0.0009577, "INCLINATION": 51.6284, "RA_OF_ASC_NODE": 70.699, "ARG_OF_PERICENTER": 357.1699, "MEAN_ANOMALY": 2.9247, "EPHEMERIS_TYPE": 0, "CLASSIFICATION_TYPE": "U", "NORAD_CAT_ID": 65733, "ELEMENT_SET_NO": 999, "REV_AT_EPOCH": 1515, "BSTAR": 0.0014478378, "MEAN_MOTION_DOT": 0.00292396, "MEAN_MOTION_DDOT": 0}, "tle": {"line1": "1 65733U 98067XM  25359.23271518  .00292396  00000+0  14478-2 0  9993", "line2": "2 65733  51.6284  70.6990 0009577 357.1699   2.9247 15.80593355 15151"}}, "geometry": {"type": "Point", "coordinates": [60.44706455815195, -8.720458806505633]}}, {"type": "Feature", "properties": {"norad_id": 65941, "name": "YOTSUBA-KULOVER", "group": "stations", "lat": 44.49130893774125, "lon": -157.17999149246373, "alt_km": 378.797545635598, "timestamp": "2025-12-25T20:42:37.443595+00:00", "meta": {"OBJECT_NAME": "YOTSUBA-KULOVER", "OBJECT_ID": "1998-067XN", "EPOCH": "2025-12-25T06:23:13.150752", "MEAN_MOTION": 15.61130686, "ECCENTRICITY": 0.00025006, "INCLINATION": 51.6289, "RA_OF_ASC_NODE": 76.9426, "ARG_OF_PERICENTER": 358.5188, "MEAN_ANOMALY": 1.5798, "EPHEMERIS_TYPE": 0, "CLASSIFICATION_TYPE": "U", "NORAD_CAT_ID": 65941, "ELEMENT_SET_NO": 999, "REV_AT_EPOCH": 1181, "BSTAR": 0.0008153338, "MEAN_MOTION_DOT": 0.00070283, "MEAN_MOTION_DDOT": 0}, "tle": {"line1": "1 65941U 98067XN  25359.26612443  .00070283  00000+0  81533-3 0  9999", "line2": "2 65941  51.6289  76.9426 0002500 358.5188   1.5798 15.61130686 11815"}}, "geometry": {"type": "Point", "coordinates": [-157.17999149246373, 44.49130893774125]}}, {"type": "Feature", "properties": {"norad_id": 65942, "name": "BOTAN", "group": "stations", "lat": -51.60643189277369, "lon": -16.665983468407138, "alt_km": 375.17707036308093, "timestamp": "2025-12-25T20:42:37.443607+00:00", "meta": {"OBJECT_NAME": "BOTAN", "OBJECT_ID": "1998-067XP", "EPOCH": "2025-12-24T22:06:45.138528", "MEAN_MOTION": 15.65433076, "ECCENTRICITY": 0.00033628, "INCLINATION": 51.6276, "RA_OF_ASC_NODE": 77.6384, "ARG_OF_PERICENTER": 336.9031, "MEAN_ANOMALY": 23.1813, "EPHEMERIS_TYPE": 0, "CLASSIFICATION_TYPE": "U", "NORAD_CAT_ID": 65942, "ELEMENT_SET_NO": 999, "REV_AT_EPOCH": 1177, "BSTAR": 0.0011375872, "MEAN_MOTION_DOT": 0.00117098, "MEAN_MOTION_DDOT": 0}, "tle": {"line1": "1 65942U 98067XP  25358.92135577  .00117098  00000+0  11376-2 0  9993", "line2": "2 65942  51.6276  77.6384 0003362 336.9031  23.1813 15.65433076 11773"}}, "geometry": {"type": "Point", "coordinates": [-16.665983468407138, -51.60643189277369]}}, {"type": "Feature", "properties": {"norad_id": 65943, "name": "E-KAGAKU-1", "group": "stations", "lat": 44.75183191417689, "lon": -157.82094588378612, "alt_km": 378.8293439328181, "timestamp": "2025-12-25T20:42:37.443617+00:00", "meta": {"OBJECT_NAME": "E-KAGAKU-1", "OBJECT_ID": "1998-067XQ", "EPOCH": "2025-12-24T11:57:09.904320", "MEAN_MOTION": 15.61022855, "ECCENTRICITY": 0.00014072, "INCLINATION": 51.6316, "RA_OF_ASC_NODE": 80.8196, "ARG_OF_PERICENTER": 317.6976, "MEAN_ANOMALY": 42.3909, "EPHEMERIS_TYPE": 0, "CLASSIFICATION_TYPE": "U", "NORAD_CAT_ID": 65943, "ELEMENT_SET_NO": 999, "REV_AT_EPOCH": 1169, "BSTAR": 0.00086882896, "MEAN_MOTION_DOT": 0.00074652, "MEAN_MOTION_DDOT": 0}, "tle": {"line1": "1 65943U 98067XQ  25358.49803130  .00074652  00000+0  86883-3 0  9997", "line2": "2 65943  51.6316  80.8196 0001407 317.6976  42.3909 15.61022855 11693"}}, "geometry": {"type": "Point", "coordinates": [-157.82094588378612, 44.75183191417689]}}]}